[
    {
        "Altitude(m)": 702877.8057746757,
        "Argument of Periapsis(deg)": 0.007973084830638947,
        "Eccentricity": 0.0,
        "Inclination(deg)": 45.0,
        "Latitude(deg)": 5.820235980112016,
        "Longitude(deg)": -146.35147266754478,
        "Mean Anomaly(deg)": 171.7096516532366,
        "RAAN(deg)": 139.99247364097926,
        "Satellite Name": "Constellation 1 626",
        "Satellite Number": 626,
        "Semi-Major Axis(m)": 7083131.272910544,
        "Time(s)": 133
    },
    {
        "Altitude(m)": 702880.6179190814,
        "Argument of Periapsis(deg)": 0.008033032836884352,
        "Eccentricity": 0.0,
        "Inclination(deg)": 45.0,
        "Latitude(deg)": 5.7772375999990935,
        "Longitude(deg)": -146.31227699579296,
        "Mean Anomaly(deg)": 171.7703527934865,
        "RAAN(deg)": 139.9924170518137,
        "Satellite Name": "Constellation 1 626",
        "Satellite Number": 626,
        "Semi-Major Axis(m)": 7083131.272910544,
        "Time(s)": 134
    },
    {
        "Altitude(m)": 702883.4507236906,
        "Argument of Periapsis(deg)": 0.008092980843129758,
        "Eccentricity": 0.0,
        "Inclination(deg)": 45.0,
        "Latitude(deg)": 5.734235910478215,
        "Longitude(deg)": -146.27308790571615,
        "Mean Anomaly(deg)": 171.83105393373634,
        "RAAN(deg)": 139.9923604626481,
        "Satellite Name": "Constellation 1 626",
        "Satellite Number": 626,
        "Semi-Major Axis(m)": 7083131.272910544,
        "Time(s)": 135
    },
    {
        "Altitude(m)": 702886.304194491,
        "Argument of Periapsis(deg)": 0.008152928849375162,
        "Eccentricity": 0.0,
        "Inclination(deg)": 45.0,
        "Latitude(deg)": 5.69123093734045,
        "Longitude(deg)": -146.23390534801237,
        "Mean Anomaly(deg)": 171.89175507398633,
        "RAAN(deg)": 139.99230387348254,
        "Satellite Name": "Constellation 1 626",
        "Satellite Number": 626,
        "Semi-Major Axis(m)": 7083131.272910544,
        "Time(s)": 136
    },
    {
        "Altitude(m)": 702889.178337387,
        "Argument of Periapsis(deg)": 0.008212876855620568,
        "Eccentricity": 0.0,
        "Inclination(deg)": 45.0,
        "Latitude(deg)": 5.6482227063646,
        "Longitude(deg)": -146.19472927339467,
        "Mean Anomaly(deg)": 171.95245621423615,
        "RAAN(deg)": 139.992247284317,
        "Satellite Name": "Constellation 1 626",
        "Satellite Number": 626,
        "Semi-Major Axis(m)": 7083131.272910544,
        "Time(s)": 137
    },
    {
        "Altitude(m)": 702892.0731581937,
        "Argument of Periapsis(deg)": 0.008272824861865974,
        "Eccentricity": 0.0,
        "Inclination(deg)": 45.0,
        "Latitude(deg)": 5.60521124331667,
        "Longitude(deg)": -146.15555963259007,
        "Mean Anomaly(deg)": 172.01315735448603,
        "RAAN(deg)": 139.9921906951514,
        "Satellite Name": "Constellation 1 626",
        "Satellite Number": 626,
        "Semi-Major Axis(m)": 7083131.272910544,
        "Time(s)": 138
    },
    {
        "Altitude(m)": 702894.9886626235,
        "Argument of Periapsis(deg)": 0.00833277286811138,
        "Eccentricity": 0.0,
        "Inclination(deg)": 45.0,
        "Latitude(deg)": 5.56219657395048,
        "Longitude(deg)": -146.11639637633976,
        "Mean Anomaly(deg)": 172.07385849473602,
        "RAAN(deg)": 139.99213410598585,
        "Satellite Name": "Constellation 1 626",
        "Satellite Number": 626,
        "Semi-Major Axis(m)": 7083131.272910544,
        "Time(s)": 139
    },
    {
        "Altitude(m)": 702897.9248563136,
        "Argument of Periapsis(deg)": 0.008392720874356788,
        "Eccentricity": 0.0,
        "Inclination(deg)": 45.0,
        "Latitude(deg)": 5.519178724007655,
        "Longitude(deg)": -146.07723945539934,
        "Mean Anomaly(deg)": 172.1345596349859,
        "RAAN(deg)": 139.99207751682025,
        "Satellite Name": "Constellation 1 626",
        "Satellite Number": 626,
        "Semi-Major Axis(m)": 7083131.272910544,
        "Time(s)": 140
    },
    {
        "Altitude(m)": 702900.8817447978,
        "Argument of Periapsis(deg)": 0.008452668880602192,
        "Eccentricity": 0.0,
        "Inclination(deg)": 45.0,
        "Latitude(deg)": 5.476157719217735,
        "Longitude(deg)": -146.03808898863522,
        "Mean Anomaly(deg)": 172.19526077523582,
        "RAAN(deg)": 139.9920209276547,
        "Satellite Name": "Constellation 1 626",
        "Satellite Number": 626,
        "Semi-Major Axis(m)": 7083131.272910544,
        "Time(s)": 141
    },
    {
        "Altitude(m)": 702903.8593335226,
        "Argument of Periapsis(deg)": 0.008512616886847598,
        "Eccentricity": 0.0,
        "Inclination(deg)": 45.0,
        "Latitude(deg)": 5.433133585297682,
        "Longitude(deg)": -145.99894459063697,
        "Mean Anomaly(deg)": 172.25596191548564,
        "RAAN(deg)": 139.9919643384891,
        "Satellite Name": "Constellation 1 626",
        "Satellite Number": 626,
        "Semi-Major Axis(m)": 7083131.272910544,
        "Time(s)": 142
    },
    {
        "Altitude(m)": 702906.857627846,
        "Argument of Periapsis(deg)": 0.008572564893093004,
        "Eccentricity": 0.0,
        "Inclination(deg)": 45.0,
        "Latitude(deg)": 5.390106347952933,
        "Longitude(deg)": -145.95980638029874,
        "Mean Anomaly(deg)": 172.3166630557356,
        "RAAN(deg)": 139.99190774932356,
        "Satellite Name": "Constellation 1 626",
        "Satellite Number": 626,
        "Semi-Major Axis(m)": 7083131.272910544,
        "Time(s)": 143
    },
    {
        "Altitude(m)": 702909.8766330291,
        "Argument of Periapsis(deg)": 0.008632512899338408,
        "Eccentricity": 0.0,
        "Inclination(deg)": 45.0,
        "Latitude(deg)": 5.347076032877114,
        "Longitude(deg)": -145.92067430843173,
        "Mean Anomaly(deg)": 172.37736419598548,
        "RAAN(deg)": 139.99185116015798,
        "Satellite Name": "Constellation 1 626",
        "Satellite Number": 626,
        "Semi-Major Axis(m)": 7083131.272910544,
        "Time(s)": 144
    },
    {
        "Altitude(m)": 702912.9163542491,
        "Argument of Periapsis(deg)": 0.008692460905583814,
        "Eccentricity": 0.0,
        "Inclination(deg)": 45.0,
        "Latitude(deg)": 5.3040426657518,
        "Longitude(deg)": -145.88154832586045,
        "Mean Anomaly(deg)": 172.43806533623538,
        "RAAN(deg)": 139.99179457099243,
        "Satellite Name": "Constellation 1 626",
        "Satellite Number": 626,
        "Semi-Major Axis(m)": 7083131.272910544,
        "Time(s)": 145
    },
    {
        "Altitude(m)": 702915.9767965846,
        "Argument of Periapsis(deg)": 0.00875240891182922,
        "Eccentricity": 0.0,
        "Inclination(deg)": 45.0,
        "Latitude(deg)": 5.2610062722470365,
        "Longitude(deg)": -145.84242838342314,
        "Mean Anomaly(deg)": 172.4987664764853,
        "RAAN(deg)": 139.99173798182684,
        "Satellite Name": "Constellation 1 626",
        "Satellite Number": 626,
        "Semi-Major Axis(m)": 7083131.272910544,
        "Time(s)": 146
    },
    {
        "Altitude(m)": 702919.0579650261,
        "Argument of Periapsis(deg)": 0.008812356918074627,
        "Eccentricity": 0.0,
        "Inclination(deg)": 45.0,
        "Latitude(deg)": 5.2179668780212305,
        "Longitude(deg)": -145.8033144319715,
        "Mean Anomaly(deg)": 172.5594676167352,
        "RAAN(deg)": 139.9916813926613,
        "Satellite Name": "Constellation 1 626",
        "Satellite Number": 626,
        "Semi-Major Axis(m)": 7083131.272910544,
        "Time(s)": 147
    },
    {
        "Altitude(m)": 702922.159864476,
        "Argument of Periapsis(deg)": 0.008872304924320031,
        "Eccentricity": 0.0,
        "Inclination(deg)": 45.0,
        "Latitude(deg)": 5.174924508721525,
        "Longitude(deg)": -145.76420659046755,
        "Mean Anomaly(deg)": 172.62016875698504,
        "RAAN(deg)": 139.9916248034957,
        "Satellite Name": "Constellation 1 626",
        "Satellite Number": 626,
        "Semi-Major Axis(m)": 7083131.272910544,
        "Time(s)": 148
    },
    {
        "Altitude(m)": 702925.2824997324,
        "Argument of Periapsis(deg)": 0.008932252930565437,
        "Eccentricity": 0.0,
        "Inclination(deg)": 45.0,
        "Latitude(deg)": 5.131879189982823,
        "Longitude(deg)": -145.72510447359525,
        "Mean Anomaly(deg)": 172.680869897235,
        "RAAN(deg)": 139.99156821433013,
        "Satellite Name": "Constellation 1 626",
        "Satellite Number": 626,
        "Semi-Major Axis(m)": 7083131.272910544,
        "Time(s)": 149
    },
    {
        "Altitude(m)": 702928.4258755205,
        "Argument of Periapsis(deg)": 0.008992200936810843,
        "Eccentricity": 0.0,
        "Inclination(deg)": 45.0,
        "Latitude(deg)": 5.088830947429634,
        "Longitude(deg)": -145.68600820034317,
        "Mean Anomaly(deg)": 172.74157103748487,
        "RAAN(deg)": 139.99151162516458,
        "Satellite Name": "Constellation 1 626",
        "Satellite Number": 626,
        "Semi-Major Axis(m)": 7083131.272910544,
        "Time(s)": 150
    },
    {
        "Altitude(m)": 702931.5899964597,
        "Argument of Periapsis(deg)": 0.009052148943056249,
        "Eccentricity": 0.0,
        "Inclination(deg)": 45.0,
        "Latitude(deg)": 5.0457798066748385,
        "Longitude(deg)": -145.64691772161552,
        "Mean Anomaly(deg)": 172.80227217773478,
        "RAAN(deg)": 139.991455035999,
        "Satellite Name": "Constellation 1 626",
        "Satellite Number": 626,
        "Semi-Major Axis(m)": 7083131.272910544,
        "Time(s)": 151
    }
]